STARLINK-1329           
1 45531U 20025A   24052.88942506  .00000072  00000+0  23709-4 0  9995
2 45531  53.0532 219.1336 0001374  86.0998 274.0148 15.06394443212536
